ONEWEB-0267             
1 48985U 21060U   25179.37491444 -.00000052  00000+0 -16955-3 0  9990
2 48985  87.9050 299.2951 0002145 105.8630 254.2737 13.16593867193032
ONEWEB-0268             
1 48986U 21060V   25179.57122561  .00000058  00000+0  11849-3 0  9995
2 48986  87.9052 299.2625 0001903 104.1739 255.9604 13.16590233193323
ONEWEB-0269             
1 48987U 21060W   25179.62823916  .00000073  00000+0  15603-3 0  9993
2 48987  87.9049 299.2847 0001877 100.7259 259.4083 13.16593552193108
ONEWEB-0270             
1 48988U 21060X   25179.56966802  .00000030  00000+0  44571-4 0  9999
2 48988  87.9051 299.2662 0002402 102.3328 257.8071 13.16594524193139
ONEWEB-0271             
1 48989U 21060Y   25179.63299434  .00000163  00000+0  39259-3 0  9991
2 48989  87.9055 299.2356 0002196 105.9528 254.1844 13.16595783193142
ONEWEB-0272             
1 48990U 21060Z   25179.35117049  .00000055  00000+0  11005-3 0  9992
2 48990  87.9050 299.3232 0002091 104.3888 255.7475 13.16593012193059
ONEWEB-0273             
1 48991U 21060AA  25179.60132790 -.00000033  00000+0 -11919-3 0  9993
2 48991  87.9051 299.2578 0002125 100.0981 260.0389 13.16593328193062
ONEWEB-0274             
1 48992U 21060AB  25179.39866775  .00000123  00000+0  28743-3 0  9998
2 48992  87.9047 299.3338 0001837 113.2393 246.8932 13.16593972193077
